*******************************************************************************
Ephemeris / PORT_LOGIN Tue Oct  6 15:49:00 2015 Pasadena, USA    / Horizons    
*******************************************************************************
Target body name: Venus (299)                     {source: DE-0431LE-0431}
Center body name: Earth (399)                     {source: DE-0431LE-0431}
Center-site name: BODY CENTER
*******************************************************************************
Start time      : A.D. 1900-Jan-01 00:00:00.0000 CT 
Stop  time      : A.D. 2099-Dec-31 00:00:00.0000 CT 
Step-size       : 14400 minutes
*******************************************************************************
Center geodetic : 0.00000000,0.00000000,0.0000000 {E-lon(deg),Lat(deg),Alt(km)}
Center cylindric: 0.00000000,0.00000000,0.0000000 {E-lon(deg),Dxy(km),Dz(km)}
Center radii    : 6378.1 x 6378.1 x 6356.8 km     {Equator, meridian, pole}    
Output units    : AU-D                                                         
Output format   : 03
Reference frame : ICRF/J2000.0                                                 
Output type     : GEOMETRIC cartesian states
Coordinate systm: Earth Mean Equator and Equinox of Reference Epoch            
*******************************************************************************
JDCT 
   X     Y     Z
   VX    VY    VZ
   LT    RG    RR
*******************************************************************************
$$SOE
2453150.500000000 = A.D. 2004-May-25 00:00:00.0000 (CT)
   2.734129413252756E-02  2.852469114144209E-01  1.409587702195771E-01
   1.227877936169240E-03 -3.334687653128616E-03 -2.653562689510071E-03
   1.844396399745079E-03  3.193473371395532E-01 -4.044751168927182E-03
2453160.500000000 = A.D. 2004-Jun-04 00:00:00.0000 (CT)
   4.804913248979178E-02  2.622873774170284E-01  1.184094010868125E-01
   2.754980415055347E-03 -1.177226860706281E-03 -1.804728747243271E-03
   1.685067961644088E-03  2.917604732499965E-01 -1.337035728965009E-03
2453170.500000000 = A.D. 2004-Jun-14 00:00:00.0000 (CT)
   7.896495394406176E-02  2.626987983395031E-01  1.056372209357983E-01
   3.250516000303170E-03  1.278194715048680E-03 -7.252015846220565E-04
   1.697701260291167E-03  2.939478611037090E-01  1.754898912994157E-03
2453180.500000000 = A.D. 2004-Jun-24 00:00:00.0000 (CT)
   1.095626493322140E-01  2.877367309459774E-01  1.041737294372651E-01
   2.697173799385147E-03  3.701126777442264E-03  4.357743444968334E-04
   1.877252842956036E-03  3.250362539302962E-01  4.325227874084245E-03
2453190.500000000 = A.D. 2004-Jul-04 00:00:00.0000 (CT)
   1.295330953699058E-01  3.357106978676685E-01  1.142161634074117E-01
   1.131423172688360E-03  5.818265543603812E-03  1.554331463817403E-03
   2.180407926401497E-03  3.775259294967893E-01  6.032275746596701E-03
2453200.500000000 = A.D. 2004-Jul-14 00:00:00.0000 (CT)
   1.291659359605510E-01  4.020172504959967E-01  1.346030282777489E-01
  -1.333273106410102E-03  7.316116249742281E-03  2.478199416031473E-03
   2.559667006740476E-03  4.431926036504519E-01  7.000488254697894E-03
2453210.500000000 = A.D. 2004-Jul-24 00:00:00.0000 (CT)
   1.007695664004916E-01  4.792107835561496E-01  1.627266590283248E-01
  -4.428379573039581E-03  7.969884508872947E-03  3.087249666554964E-03
   2.980287478521774E-03  5.160207807322905E-01  7.510136567062721E-03
2453220.500000000 = A.D. 2004-Aug-03 00:00:00.0000 (CT)
   3.936664488530556E-02  5.581479750353470E-01  1.950362628364921E-01
  -7.891155693742324E-03  7.641140644511469E-03  3.301172901308865E-03
   3.422295746747390E-03  5.925521399731920E-01  7.759801997543299E-03
2453230.500000000 = A.D. 2004-Aug-13 00:00:00.0000 (CT)
  -5.715232376124011E-02  6.283250233881360E-01  2.271435131746000E-01
  -1.138187210518455E-02  6.208840942492514E-03  3.037475417605030E-03
   3.872840982444319E-03  6.705616293110656E-01  7.816751180485649E-03
2453240.500000000 = A.D. 2004-Aug-23 00:00:00.0000 (CT)
  -1.870336335883017E-01  6.787644830313122E-01  2.541558856138350E-01
  -1.450492847785086E-02  3.711001139495210E-03  2.286102236923685E-03
   4.323152042123230E-03  7.485305723283188E-01  7.765656877149508E-03
2453250.500000000 = A.D. 2004-Sep-02 00:00:00.0000 (CT)
  -3.449801847591641E-01  6.993704454485102E-01  2.713292467965913E-01
  -1.694319368251798E-02  2.601340840330532E-04  1.073043248282088E-03
   4.768738529248275E-03  8.256814809661898E-01  7.652035729534734E-03
2453260.500000000 = A.D. 2004-Sep-12 00:00:00.0000 (CT)
  -5.224286266821579E-01  6.813370121499647E-01  2.742234830046577E-01
  -1.834577667247832E-02 -3.972763651271733E-03 -5.542373695815533E-04
   5.205502299231743E-03  9.013047834853938E-01  7.462051924742669E-03
2453270.500000000 = A.D. 2004-Sep-22 00:00:00.0000 (CT)
  -7.075199200583986E-01  6.183926218170716E-01  2.592857804769091E-01
  -1.844211701025881E-02 -8.662442719700729E-03 -2.468934102678012E-03
   5.629939566248756E-03  9.747938181763128E-01  7.233545033618296E-03
2453280.500000000 = A.D. 2004-Oct-02 00:00:00.0000 (CT)
  -8.864933435514167E-01  5.076805857266248E-01  2.243373593186744E-01
  -1.710234922667399E-02 -1.347254382997202E-02 -4.535127595142174E-03
   6.040698739938168E-03  1.045914564422341E+00  6.983334495276805E-03
2453290.500000000 = A.D. 2004-Oct-12 00:00:00.0000 (CT)
  -1.044435033585153E+00  3.498146374424584E-01  1.686091035197549E-01
  -1.423124405737397E-02 -1.801886927569982E-02 -6.592072823235848E-03
   6.435606586321520E-03  1.114290738424561E+00  6.684846150376102E-03
2453300.500000000 = A.D. 2004-Oct-22 00:00:00.0000 (CT)
  -1.166294184880086E+00  1.496635885269542E-01  9.320319960997801E-02
  -9.919284926524490E-03 -2.186251941703775E-02 -8.439236593051042E-03
   6.812488041889160E-03  1.179545739610553E+00  6.367042084795946E-03
2453310.500000000 = A.D. 2004-Nov-01 00:00:00.0000 (CT)
  -1.238769778780282E+00 -8.396888956968586E-02  1.049283515871417E-03
  -4.391878582169027E-03 -2.466386611865166E-02 -9.917522725952017E-03
   7.170957708147842E-03  1.241612838299771E+00  6.041430456936285E-03
2453320.500000000 = A.D. 2004-Nov-11 00:00:00.0000 (CT)
  -1.251003284282651E+00 -3.390546311797465E-01 -1.033817683505234E-01
   2.067362419246031E-03 -2.610069729733930E-02 -1.086718617026108E-02
   7.509628787839624E-03  1.300251917990392E+00  5.681017609338990E-03
2453330.500000000 = A.D. 2004-Nov-21 00:00:00.0000 (CT)
  -1.195833745054008E+00 -6.006190264279794E-01 -2.140759444802739E-01
   9.003127951458849E-03 -2.593792548762257E-02 -1.115598371820218E-02
   7.827031518155196E-03  1.355208497140683E+00  5.313422329344408E-03
2453340.500000000 = A.D. 2004-Dec-01 00:00:00.0000 (CT)
  -1.070923444123392E+00 -8.522946422093969E-01 -3.241362130179644E-01
   1.594301084098446E-02 -2.411884998002680E-02 -1.073436169203994E-02
   8.123482552545134E-03  1.406537402596027E+00  4.949756664756046E-03
2453350.500000000 = A.D. 2004-Dec-11 00:00:00.0000 (CT)
  -8.785284878420687E-01 -1.077469924317113E+00 -4.262903304251330E-01
   2.241402629890490E-02 -2.064715141485928E-02 -9.573147622721189E-03
   8.398320970399293E-03  1.454124199500155E+00  4.563753431159924E-03
2453360.500000000 = A.D. 2004-Dec-21 00:00:00.0000 (CT)
  -6.259670155198901E-01 -1.260243749368156E+00 -5.132572507107205E-01
   2.789630614340408E-02 -1.568445830915480E-02 -7.713280964193488E-03
   8.650720154283271E-03  1.497825763481024E+00  4.181374482975754E-03
2453370.500000000 = A.D. 2004-Dec-31 00:00:00.0000 (CT)
  -3.251711114986237E-01 -1.387193283761743E+00 -5.786028294365835E-01
   3.200761113273679E-02 -9.532058163059617E-03 -5.267226826464399E-03
   8.881580545985738E-03  1.537798001201380E+00  3.812262024187478E-03
2453380.500000000 = A.D. 2005-Jan-10 00:00:00.0000 (CT)
   8.550260840358188E-03 -1.447998684300770E+00 -6.170491914678757E-01
   3.442943299515950E-02 -2.518078629533121E-03 -2.357573700508330E-03
   9.090752084969187E-03  1.574014930484574E+00  3.427727409985684E-03
2453390.500000000 = A.D. 2005-Jan-20 00:00:00.0000 (CT)
   3.569382543608747E-01 -1.436185810749473E+00 -6.248303146226584E-01
   3.491950439065775E-02  4.907124330666081E-03  8.290245568360021E-04
   9.277660631102219E-03  1.606377142048454E+00  3.049448851181818E-03
2453400.500000000 = A.D. 2005-Jan-30 00:00:00.0000 (CT)
   7.003843742231666E-01 -1.350029856592133E+00 -6.002183351596441E-01
   3.344315492774379E-02  1.228084384924965E-02  4.091001631143352E-03
   9.443247882761541E-03  1.635047685912545E+00  2.683752360931338E-03
2453410.500000000 = A.D. 2005-Feb-09 00:00:00.0000 (CT)
   1.019336244131717E+00 -1.192150259351381E+00 -5.433740548584021E-01
   3.003006037153785E-02  1.917725859222053E-02  7.242026575602772E-03
   9.587228188979134E-03  1.659977103144914E+00  2.297276144836921E-03
2453420.500000000 = A.D. 2005-Feb-19 00:00:00.0000 (CT)
   1.295037144908352E+00 -9.696498750648416E-01 -4.564826504066231E-01
   2.484058426634690E-02  2.513158898717712E-02  1.006501096433550E-02
   9.708573299792342E-03  1.680987357783482E+00  1.907292347161931E-03
2453430.500000000 = A.D. 2005-Mar-01 00:00:00.0000 (CT)
   1.511313582231112E+00 -6.938411088207327E-01 -3.437399532369970E-01
   1.820061434320450E-02  2.979093758502611E-02  1.238885819353126E-02
   9.807573949239349E-03  1.698128788866496E+00  1.518208145242183E-03
2453440.500000000 = A.D. 2005-Mar-11 00:00:00.0000 (CT)
   1.655339236386592E+00 -3.790704707327729E-01 -2.108325012952144E-01
   1.045208128488335E-02  3.287721228889842E-02  1.407339648436060E-02
   9.883214313753762E-03  1.711225511995689E+00  1.093853801498878E-03
2453450.500000000 = A.D. 2005-Mar-21 00:00:00.0000 (CT)
   1.718205554505868E+00 -4.235434214369237E-02 -6.485842788230643E-02
   2.059307185214084E-03  3.415582700712728E-02  1.498677126505684E-02
   9.933607507343232E-03  1.719950822989020E+00  6.509761922023764E-04
